0 FENGYUN 1C DEB
1 35100U 99025DKC 13281.67013157  .00035694  00000-0  62195-2 0  1982
2 35100 097.8349 078.8748 0165864 156.8363 206.3498 14.59253326312722
0 FENGYUN 1C DEB
1 35100U 99025DKC 13282.69822392  .00034285  00000-0  59471-2 0  1993
2 35100 097.8418 079.8349 0167309 155.1283 205.8628 14.59310744312879
0 FENGYUN 1C DEB
1 35100U 99025DKC 13291.69003711  .00048204  00000-0  82834-2 0  2007
2 35100 097.8372 088.3524 0161846 125.3562 300.3132 14.60152509314189
0 FENGYUN 1C DEB
1 35100U 99025DKC 13293.66502622  .00042367  00000-0  73584-2 0  2018
2 35100 097.7997 090.1192 0155892 120.0405 241.6310 14.60303445314479
